OBJECT_NAME,OBJECT_ID,EPOCH,MEAN_MOTION,ECCENTRICITY,INCLINATION,RA_OF_ASC_NODE,ARG_OF_PERICENTER,MEAN_ANOMALY,EPHEMERIS_TYPE,CLASSIFICATION_TYPE,NORAD_CAT_ID,ELEMENT_SET_NO,REV_AT_EPOCH,BSTAR,MEAN_MOTION_DOT,MEAN_MOTION_DDOT
IRIDIUM 156,2018-061H,2026-06-14T09:30:54.384192,14.34218101,.0002061,86.3960,57.8963,81.1435,278.9994,0,U,43576,999,41297,.6976E-4,.215E-5,0
IRIDIUM 164,2018-061J,2026-06-14T10:43:58.453248,14.34217976,.0002109,86.3963,57.9155,88.8695,271.2743,0,U,43577,999,41302,.25192E-4,.9E-6,0
IRIDIUM 159,2018-061K,2026-06-14T09:58:18.475104,14.34217872,.0002282,86.3961,57.8655,84.0650,276.0806,0,U,43578,999,41298,.36953E-4,.123E-5,0
IRIDIUM 180,2019-002A,2026-06-14T11:38:02.927040,14.34217504,.0002161,86.3968,354.7275,89.1677,270.9766,0,U,43922,999,38860,-.40462E-5,.8E-7,0
IRIDIUM 176,2019-002B,2026-06-14T12:11:49.930656,14.72263830,.0002264,86.6090,354.6617,92.3516,267.7961,0,U,43923,999,39885,.10474E-3,.685E-5,0
IRIDIUM 168,2019-002C,2026-06-14T11:28:54.903072,14.34218085,.000217,86.3973,354.8076,89.0609,271.0835,0,U,43924,999,38858,.12677E-4,.55E-6,0
IRIDIUM 173,2019-002D,2026-06-14T11:10:38.945856,14.34217642,.0002217,86.3967,354.7015,87.0722,273.0727,0,U,43925,999,38856,.15318E-4,.63E-6,0
IRIDIUM 169,2019-002E,2026-06-14T07:56:29.923296,14.38607765,.0001955,86.4226,26.3877,71.7252,288.4159,0,U,43926,999,38981,.76015E-4,.252E-5,0
IRIDIUM 172,2019-002F,2026-06-14T12:41:58.881408,14.34217585,.0002257,86.3969,354.6831,89.1429,271.0025,0,U,43927,999,38858,.3635E-4,.122E-5,0
IRIDIUM 175,2019-002G,2026-06-14T10:24:51.702336,14.43611316,.000213,86.4510,291.6720,188.5799,171.5366,0,U,43928,999,39858,.73837E-4,.27E-5,0
IRIDIUM 171,2019-002H,2026-06-14T12:14:34.933056,14.34216557,.00019,86.3975,354.9970,88.8196,271.3218,0,U,43929,999,38857,-.53529E-4,-.13E-5,0
IRIDIUM 170,2019-002J,2026-06-14T12:20:44.009664,14.72264339,.0002357,86.6090,354.6615,88.6512,271.4975,0,U,43930,999,39886,.10572E-3,.691E-5,0
IRIDIUM 167,2019-002K,2026-06-14T12:05:26.857248,14.34217616,.0001747,86.3967,354.7159,89.5713,270.5683,0,U,43931,999,38857,-.31078E-5,.11E-6,0
IRIDIUM 181,2023-068S,2026-06-14T09:39:45.410688,14.43311459,.0002288,86.4501,57.9545,89.3466,270.7997,0,U,56726,999,16203,.75468E-4,.274E-5,0
IRIDIUM 177,2023-068T,2026-06-14T11:35:57.755040,14.80225807,.0002388,86.1959,330.0758,87.2073,272.9422,0,U,56727,999,16596,.12479E-3,.975E-5,0
IRIDIUM 174,2023-068U,2026-06-14T12:02:57.552000,14.72260572,.0002497,86.6098,354.8138,84.3641,275.7861,0,U,56728,999,16562,.10847E-3,.709E-5,0
IRIDIUM 178,2023-068V,2026-06-14T08:05:37.231872,14.80229358,.000266,86.6539,26.5513,86.8291,273.3235,0,U,56729,999,16594,.11237E-3,.88E-5,0
IRIDIUM 179,2023-068W,2026-06-14T03:05:48.611040,14.80232418,.0002449,86.6782,35.6093,88.8685,271.2817,0,U,56730,999,16591,.82600267E-4,.654E-5,0
