IRIDIUM 156             
1 43576U 18061H   26165.39646278  .00000215  00000+0  69760-4 0  9995
2 43576  86.3960  57.8963 0002061  81.1435 278.9994 14.34218101412974
IRIDIUM 164             
1 43577U 18061J   26165.44720432  .00000090  00000+0  25192-4 0  9999
2 43577  86.3963  57.9155 0002109  88.8695 271.2743 14.34217976413021
IRIDIUM 159             
1 43578U 18061K   26165.41549161  .00000123  00000+0  36953-4 0  9999
2 43578  86.3961  57.8655 0002282  84.0650 276.0806 14.34217872412987
IRIDIUM 180             
1 43922U 19002A   26165.48475610  .00000008  00000+0 -40462-5 0  9996
2 43922  86.3968 354.7275 0002161  89.1677 270.9766 14.34217504388606
IRIDIUM 176             
1 43923U 19002B   26165.50821679  .00000685  00000+0  10474-3 0  9998
2 43923  86.6090 354.6617 0002264  92.3516 267.7961 14.72263830398851
IRIDIUM 168             
1 43924U 19002C   26165.47841323  .00000055  00000+0  12677-4 0  9992
2 43924  86.3973 354.8076 0002170  89.0609 271.0835 14.34218085388589
IRIDIUM 173             
1 43925U 19002D   26165.46572854  .00000063  00000+0  15318-4 0  9996
2 43925  86.3967 354.7015 0002217  87.0722 273.0727 14.34217642388569
IRIDIUM 169             
1 43926U 19002E   26165.33090189  .00000252  00000+0  76015-4 0  9990
2 43926  86.4226  26.3877 0001955  71.7252 288.4159 14.38607765389814
IRIDIUM 172             
1 43927U 19002F   26165.52915372  .00000122  00000+0  36350-4 0  9996
2 43927  86.3969 354.6831 0002257  89.1429 271.0025 14.34217585388586
IRIDIUM 175             
1 43928U 19002G   26165.43393174  .00000270  00000+0  73837-4 0  9992
2 43928  86.4510 291.6720 0002130 188.5799 171.5366 14.43611316398584
IRIDIUM 171             
1 43929U 19002H   26165.51012654 -.00000130  00000+0 -53529-4 0  9996
2 43929  86.3975 354.9970 0001900  88.8196 271.3218 14.34216557388577
IRIDIUM 170             
1 43930U 19002J   26165.51439826  .00000691  00000+0  10572-3 0  9992
2 43930  86.6090 354.6615 0002357  88.6512 271.4975 14.72264339398867
IRIDIUM 167             
1 43931U 19002K   26165.50378307  .00000011  00000+0 -31078-5 0  9991
2 43931  86.3967 354.7159 0001747  89.5713 270.5683 14.34217616388574
IRIDIUM 181             
1 56726U 23068S   26165.40260892  .00000274  00000+0  75468-4 0  9992
2 56726  86.4501  57.9545 0002288  89.3466 270.7997 14.43311459162031
IRIDIUM 177             
1 56727U 23068T   26165.48330735  .00000975  00000+0  12479-3 0  9995
2 56727  86.1959 330.0758 0002388  87.2073 272.9422 14.80225807165963
IRIDIUM 174             
1 56728U 23068U   26165.50205500  .00000709  00000+0  10847-3 0  9992
2 56728  86.6098 354.8138 0002497  84.3641 275.7861 14.72260572165629
IRIDIUM 178             
1 56729U 23068V   26165.33723648  .00000880  00000+0  11237-3 0  9996
2 56729  86.6539  26.5513 0002660  86.8291 273.3235 14.80229358165940
IRIDIUM 179             
1 56730U 23068W   26165.12903485  .00000654  00000+0  82600-4 0  9996
2 56730  86.6782  35.6093 0002449  88.8685 271.2817 14.80232418165911
